[{"OBJECT_NAME":"ONEWEB-0291","OBJECT_ID":"2021-075G","EPOCH":"2026-03-09T21:57:11.284416","MEAN_MOTION":13.17649041,"ECCENTRICITY":0.00020864,"INCLINATION":87.9159,"RA_OF_ASC_NODE":25.5681,"ARG_OF_PERICENTER":71.6574,"MEAN_ANOMALY":288.4785,"EPHEMERIS_TYPE":0,"CLASSIFICATION_TYPE":"U","NORAD_CAT_ID":49081,"ELEMENT_SET_NO":999,"REV_AT_EPOCH":22053,"BSTAR":-3.5068499e-5,"MEAN_MOTION_DOT":-1.0e-8,"MEAN_MOTION_DDOT":0},{"OBJECT_NAME":"DELTA 1 DEB","OBJECT_ID":"1975-052LY","EPOCH":"2026-03-09T09:11:27.158208","MEAN_MOTION":13.31678023,"ECCENTRICITY":0.00702073,"INCLINATION":99.693,"RA_OF_ASC_NODE":255.1117,"ARG_OF_PERICENTER":268.4263,"MEAN_ANOMALY":211.2195,"EPHEMERIS_TYPE":0,"CLASSIFICATION_TYPE":"U","NORAD_CAT_ID":42639,"ELEMENT_SET_NO":999,"REV_AT_EPOCH":59752,"BSTAR":0.0001782332,"MEAN_MOTION_DOT":4.5e-7,"MEAN_MOTION_DDOT":0}]
